{"fetched_at":"2026-03-29T02:12:04Z","count":15717,"tles":[{"name":"GPS BIII-2  (PRN 18)","line1":"1 44506U 19056A   26086.66222638 -.00000084  00000+0  00000+0 0  9998","line2":"2 44506  55.6735 334.3842 0058566 197.7684   3.1076  2.00568459 48436","category":"GPS"}]}